SL-14 R/B               
1 18749U 88001B   21254.54404806  .00000093  00000-0  84429-5 0  9995
2 18749  82.5124 294.8935 0017277 250.0290 223.0440 14.83273082798732
COSMOS 1933             
1 18958U 88020A   21254.52150827  .00000786  00000-0  54739-4 0  9996
2 18958  82.5290  49.9336 0012665  60.1360 300.1123 15.03994891802873
SL-3 R/B                
1 19046U 88032B   21254.55607731  .00000507  00000-0  41392-4 0  9994
2 19046  97.3907 261.1372 0039009 109.3940 251.1508 15.03011011804711
SL-16 R/B               
1 19120U 88039B   21254.55650777 -.00000113  00000-0 -30623-4 0  9992
2 19120  71.0142 295.3140 0023102 330.2042  29.7766 14.19226481725656
COSMOS 1953             
1 19210U 88050A   21254.28250008  .00000783  00000-0  51162-4 0  9990
2 19210  82.5174 332.1012 0014187  26.2923 333.9021 15.06362391789527
SL-8 R/B                
1 19257U 88053B   21254.48302365 -.00000062  00000-0 -12099-4 0  9998
2 19257  74.0452 251.6197 0019271 120.7387 354.4759 14.37530591740812
COSMOS 1975             
1 19573U 88093A   21254.51967266  .00000585  00000-0  38821-4 0  9993
2 19573  82.5178 287.1551 0015287  67.9228 292.3620 15.05267483771318
SL-14 R/B               
1 19574U 88093B   21254.17935637  .00000124  00000-0  12077-4 0  9997
2 19574  82.5327 138.5741 0022913  57.8594  57.4718 14.83384320757680
SL-16 R/B               
1 19650U 88102B   21254.53076863 -.00000043  00000-0  26242-5 0  9991
2 19650  71.0029   1.3782 0015126 339.0042  21.0458 14.15811835694724
INTERCOSMOS 24          
1 20261U 89080A   21254.54532179  .00000072  00000-0  12126-4 0  9991
2 20261  82.5974  88.3495 1202955 126.8483 244.9141 12.56208817460635
SL-14 R/B               
1 20262U 89080C   21254.26074671  .00000086  00000-0  23884-4 0  9997
2 20262  82.5951 145.1831 1236537 329.3013  24.1007 12.48981925455260
DELTA 2 R/B(1)          
1 20303U 89085B   21254.49906337  .00004424  00000-0  13390-3 0  9996
2 20303  35.6421  52.3828 0089508 233.7311 125.5121 15.29815386737652
DELTA 1 R/B             
1 20323U 89089B   21254.20181027  .00000066  00000-0  26416-4 0  9994
2 20323  97.1195 335.1470 0070214 252.8210 106.5291 14.48416737658111
ARIANE 40 R/B           
1 20443U 90005H   21254.15410329  .00000037  00000-0  26774-4 0  9996
2 20443  98.5216 319.7768 0011552  81.4197 278.8299 14.38142467656890
DELTA 2 R/B(1)          
1 20453U 90008B   21254.08598650  .00003377  00000-0  18669-3 0  9999
2 20453  35.6230 116.6559 0274926 110.2036 252.8465 14.86895608678278
COSMOS 2058             
1 20465U 90010A   21254.29194672  .00000509  00000-0  40405-4 0  9992
2 20465  82.4909 199.4356 0016779 117.9845 242.3078 14.98272409695825
SL-14 R/B               
1 20466U 90010B   21254.40642459  .00000116  00000-0  11771-4 0  9995
2 20466  82.5064   4.7336 0019125 298.1194  61.8086 14.81436681685493
SL-14 R/B               
1 20511U 90018B   21254.54109053  .00000094  00000-0  92196-5 0  9993
2 20511  82.5233 313.0126 0018993  79.6372  39.9493 14.80091047679838
HST                     
1 20580U 90037B   21254.32993628  .00000919  00000-0  44568-4 0  9990
2 20580  28.4691 216.8254 0002417 266.5839 217.5213 15.09731384523987
SL-16 R/B               
1 20625U 90046B   21254.13547407 -.00000072  00000-0 -12812-4 0  9998
2 20625  71.0000 142.2246 0016734 276.9120  83.0099 14.14675756616350
COSMOS 2084             
1 20663U 90055A   21254.32269864  .00000178  00000-0  34501-4 0  9993
2 20663  62.7930 102.5193 0083080  18.6023 341.8076 14.92305010690634
SL-6 R/B(2)             
1 20666U 90055D   21254.56812855  .00000104  00000-0  27069-4 0  9996
2 20666  62.7861  16.9758 0108531  44.3101 316.6616 14.92555094692627
SL-8 R/B                
1 20775U 90078B   21254.37117155  .00001774  00000-0  85349-4 0  9991
2 20775  82.9268 214.2499 0564286 235.8418 118.8048 14.36334296570420
SL-8 R/B                
1 21088U 91006B   21254.58795550  .00000074  00000-0  59072-4 0  9991
2 21088  82.9423 309.8086 0021410 310.3062 204.0699 13.77176571538300
OKEAN-3                 
1 21397U 91039A   21254.55595226  .00000376  00000-0  33443-4 0  9994
2 21397  82.5195 107.8469 0019242  98.9017 261.4383 14.93153808619556
COSMOS 2151             
1 21422U 91042A   21254.41324467  .00000365  00000-0  33134-4 0  9994
2 21422  82.5010 213.5429 0014562 160.0821 200.0971 14.92295108618062
SL-14 R/B               
1 21423U 91042B   21254.53988267  .00000100  00000-0  10247-4 0  9999
2 21423  82.4944 315.3016 0016647 217.4874 142.5179 14.79840191610371
ERS-1                   
1 21574U 91050A   21254.51028270  .00000056  00000-0  33509-4 0  9998
2 21574  98.6558 215.5842 0033625  28.0500 332.2490 14.37813601579933
ARIANE 40 R/B           
1 21610U 91050F   21254.21005521  .00000044  00000-0  27328-4 0  9999
2 21610  98.4169 323.6607 0003042   8.5606  54.2102 14.40963046582613
INTERCOSMOS 25          
1 21819U 91086A   21254.35442181  .00001123  00000-0  22069-3 0  9996
2 21819  82.5839 216.0632 1516898  31.0954 337.1542 12.05312253298602
SL-8 R/B                
1 21876U 92008B   21254.54037550 -.00000007  00000-0 -23374-4 0  9998
2 21876  82.9261  47.1348 0035499  36.3628  31.1747 13.75681582483890
SL-8 R/B                
1 21938U 92020B   21254.54132983 -.00000029  00000-0 -45478-4 0  9990
2 21938  82.9274 291.6642 0029003 192.4275 276.2918 13.75291231475679
COSMOS 2219             
1 22219U 92076A   21254.31129324 -.00000086  00000-0 -20426-4 0  9993
2 22219  71.0610 205.8593 0018325 194.4839 165.5760 14.13672530486529
SL-16 R/B               
1 22220U 92076B   21254.54773318  .00000004  00000-0  25832-4 0  9992
2 22220  71.0009  41.9919 0010743  71.7897 353.7431 14.16472522489555
COSMOS 2221             
1 22236U 92080A   21254.50867693  .00000312  00000-0  31266-4 0  9990
2 22236  82.5086  37.3942 0015122 263.6883  96.2612 14.88095869536346
SL-16 R/B               
1 22285U 92093B   21254.30182629 -.00000262  00000-0 -11054-3 0  9993
2 22285  71.0197 206.6624 0006657 282.3026  77.7351 14.15065252481070
COSMOS 2228             
1 22286U 92094A   21254.39417472  .00000330  00000-0  32867-4 0  9991
2 22286  82.5235 354.2875 0021656  27.0886 333.1457 14.88321760531513
SL-16 R/B               
1 22566U 93016B   21254.56691335  .00000271  00000-0  16458-3 0  9999
2 22566  71.0074  58.8118 0012203 294.4735  65.5115 14.14975611470143
COSMOS 2242             
1 22626U 93024A   21254.41669137  .00000325  00000-0  32462-4 0  9998
2 22626  82.5239  22.5752 0019485  27.6934 332.5316 14.88171534535907
SL-16 R/B               
1 22803U 93059B   21254.33147880  .00000212  00000-0  12952-3 0  9996
2 22803  70.9885 229.0638 0017746 196.7079 163.3463 14.16842559447161
ARIANE 40 R/B           
1 22830U 93061H   21254.21588988 -.00000001  00000-0  16603-4 0  9999
2 22830  98.7058 312.0290 0012029  81.7161 278.5385 14.31489990459317
COSMOS 2278             
1 23087U 94023A   21254.57260578  .00000077  00000-0  65519-4 0  9996
2 23087  71.0552   4.7181 0008518   0.1756 359.9368 14.13827408412956
SL-16 R/B               
1 23088U 94023B   21254.44867900  .00000330  00000-0  19604-3 0  9990
2 23088  70.9981 274.5061 0005522 270.0543  89.9946 14.14694626414093
SL-16 R/B               
1 23343U 94074B   21254.12510171  .00000043  00000-0  13388-4 0  9995
2 23343  97.9378 307.4141 0007904 131.0095 257.0426 14.76899138444935
SL-16 R/B               
1 23405U 94077B   21254.28812926 -.00000282  00000-0 -12052-3 0  9990
2 23405  70.9827 202.5084 0001900 201.4777 158.6266 14.15243671384124
ERS-2                   
1 23560U 95021A   21254.53753553  .00001718  00000-0  74246-4 0  9997
2 23560  98.5384 116.6082 0004715  77.3986 282.7775 15.24189547410803
ARIANE 40+ R/B          
1 23561U 95021B   21254.12568247  .00000038  00000-0  27651-4 0  9999
2 23561  98.6667 304.7254 0006899   6.5351  47.4803 14.38044233383347
SL-16 R/B               
1 23705U 95058B   21254.55972494 -.00000211  00000-0 -84199-4 0  9994
2 23705  71.0239  22.4618 0010278 101.4854 258.7423 14.15150312335796
SL-16 R/B               
1 24298U 96051B   21254.55929409 -.00000200  00000-0 -81938-4 0  9990
2 24298  70.8241  39.3086 0013817  35.8585 324.3460 14.12419281290053
ORBVIEW 2 (SEASTAR)     
1 24883U 97037A   21254.34447525  .00000095  00000-0  50241-4 0  9999
2 24883  98.6513  12.3482 0002047 185.8000 174.3161 14.33632931273318
SL-16 R/B               
1 25400U 98043G   21254.41814337 -.00000001  00000-0  17803-4 0  9995
2 25400  98.6423 189.0115 0011017 100.0273 260.2150 14.25482024205266
SL-16 R/B               
1 25407U 98045B   21254.58765646 -.00000292  00000-0 -12439-3 0  9992
2 25407  71.0129  29.4633 0007746 347.8337  12.2598 14.15841252194932
ISS (ZARYA)             
1 25544U 98067A   21254.57379002  .00002620  00000-0  56399-4 0  9993
2 25544  51.6436 275.5624 0003404  23.4371 118.9508 15.48629868301989
CZ-4B R/B               
1 25732U 99025C   21254.54157201 -.00000026  00000-0  91284-5 0  9991
2 25732  98.8959 291.1617 0037389   5.7727 117.3998 14.17698915155734
OKEAN-O                 
1 25860U 99039A   21254.58266806  .00000076  00000-0  18404-4 0  9990
2 25860  98.1774 286.4833 0001030 113.6787 246.4530 14.76759173192095
SL-16 R/B               
1 25861U 99039B   21254.57591056  .00000051  00000-0  14493-4 0  9995
2 25861  98.2029 271.6074 0016372 145.1222 328.0602 14.78661357194280
DELTA 2 R/B             
1 25876U 99041E   21254.50613814  .00000255  00000-0  82558-4 0  9997
2 25876  51.7680 329.4776 0531084 219.6846 136.4071 14.04628667132015
HELIOS 1B               
1 25977U 99064A   21254.54739571  .00000097  00000-0  19268-4 0  9999
2 25977  98.3222  72.4836 0001279  32.0816 328.0474 14.82580449441953
TERRA                   
1 25994U 99068A   21254.55365494  .00000083  00000-0  28369-4 0  9999
2 25994  98.1701 327.3765 0001421  95.2535  15.9235 14.57127672155881
